{"type": "FeatureCollection", "features": [{"type": "Feature", "properties": {"norad_id": 50032, "name": "COSMOS 1408 DEB", "group": "cosmos-1408-debris", "lat": 61.419279694189434, "lon": 62.50762929671348, "alt_km": 426.96250098326254, "timestamp": "2025-12-22T08:58:20.631772+00:00", "meta": {"OBJECT_NAME": "COSMOS 1408 DEB", "OBJECT_ID": "1982-092RU", "EPOCH": "2025-12-22T04:02:31.932960", "MEAN_MOTION": 15.45783536, "ECCENTRICITY": 0.0016203, "INCLINATION": 82.5631, "RA_OF_ASC_NODE": 48.8449, "ARG_OF_PERICENTER": 173.5124, "MEAN_ANOMALY": 186.6338, "EPHEMERIS_TYPE": 0, "CLASSIFICATION_TYPE": "U", "NORAD_CAT_ID": 50032, "ELEMENT_SET_NO": 999, "REV_AT_EPOCH": 22749, "BSTAR": 0.00010471, "MEAN_MOTION_DOT": 5.134e-05, "MEAN_MOTION_DDOT": 0}, "tle": {"line1": "1 50032U 82092RU  25356.16842515  .00005134  00000+0  10471-3 0  9992", "line2": "2 50032  82.5631  48.8449 0016203 173.5124 186.6338 15.45783536227495"}}, "geometry": {"type": "Point", "coordinates": [62.50762929671348, 61.419279694189434]}}, {"type": "Feature", "properties": {"norad_id": 50058, "name": "COSMOS 1408 DEB", "group": "cosmos-1408-debris", "lat": -10.19364398004744, "lon": -119.4079679260745, "alt_km": 384.62000348341644, "timestamp": "2025-12-22T08:58:20.631792+00:00", "meta": {"OBJECT_NAME": "COSMOS 1408 DEB", "OBJECT_ID": "1982-092SW", "EPOCH": "2025-12-22T03:33:31.793760", "MEAN_MOTION": 15.6464179, "ECCENTRICITY": 0.0016044, "INCLINATION": 82.6122, "RA_OF_ASC_NODE": 59.4914, "ARG_OF_PERICENTER": 67.1672, "MEAN_ANOMALY": 293.128, "EPHEMERIS_TYPE": 0, "CLASSIFICATION_TYPE": "U", "NORAD_CAT_ID": 50058, "ELEMENT_SET_NO": 999, "REV_AT_EPOCH": 22951, "BSTAR": 0.00034397, "MEAN_MOTION_DOT": 0.0003358, "MEAN_MOTION_DDOT": 0}, "tle": {"line1": "1 50058U 82092SW  25356.14828465  .00033580  00000+0  34397-3 0  9995", "line2": "2 50058  82.6122  59.4914 0016044  67.1672 293.1280 15.64641790229514"}}, "geometry": {"type": "Point", "coordinates": [-119.4079679260745, -10.19364398004744]}}, {"type": "Feature", "properties": {"norad_id": 50404, "name": "COSMOS 1408 DEB", "group": "cosmos-1408-debris", "lat": 12.529968381815154, "lon": -153.0953157044029, "alt_km": 624.8011703923476, "timestamp": "2025-12-22T08:58:20.631805+00:00", "meta": {"OBJECT_NAME": "COSMOS 1408 DEB", "OBJECT_ID": "1982-092ADS", "EPOCH": "2025-12-21T15:28:45.909120", "MEAN_MOTION": 15.15078556, "ECCENTRICITY": 0.0168442, "INCLINATION": 82.2035, "RA_OF_ASC_NODE": 205.9075, "ARG_OF_PERICENTER": 168.3631, "MEAN_ANOMALY": 192.1574, "EPHEMERIS_TYPE": 0, "CLASSIFICATION_TYPE": "U", "NORAD_CAT_ID": 50404, "ELEMENT_SET_NO": 999, "REV_AT_EPOCH": 21328, "BSTAR": 0.0028703, "MEAN_MOTION_DOT": 0.00077658, "MEAN_MOTION_DDOT": 0}, "tle": {"line1": "1 50404U 82092ADS 25355.64497580  .00077658  00000+0  28703-2 0  9991", "line2": "2 50404  82.2035 205.9075 0168442 168.3631 192.1574 15.15078556213284"}}, "geometry": {"type": "Point", "coordinates": [-153.0953157044029, 12.529968381815154]}}, {"type": "Feature", "properties": {"norad_id": 50621, "name": "COSMOS 1408 DEB", "group": "cosmos-1408-debris", "lat": -52.23986867777698, "lon": 54.44830926895914, "alt_km": 422.41401392931493, "timestamp": "2025-12-22T08:58:20.631835+00:00", "meta": {"OBJECT_NAME": "COSMOS 1408 DEB", "OBJECT_ID": "1982-092ALR", "EPOCH": "2025-12-22T04:34:23.412864", "MEAN_MOTION": 15.57122494, "ECCENTRICITY": 0.0029074, "INCLINATION": 82.5697, "RA_OF_ASC_NODE": 64.3395, "ARG_OF_PERICENTER": 118.4206, "MEAN_ANOMALY": 241.9985, "EPHEMERIS_TYPE": 0, "CLASSIFICATION_TYPE": "U", "NORAD_CAT_ID": 50621, "ELEMENT_SET_NO": 999, "REV_AT_EPOCH": 22397, "BSTAR": 0.00039202, "MEAN_MOTION_DOT": 0.00029066, "MEAN_MOTION_DDOT": 0}, "tle": {"line1": "1 50621U 82092ALR 25356.19054876  .00029066  00000+0  39202-3 0  9997", "line2": "2 50621  82.5697  64.3395 0029074 118.4206 241.9985 15.57122494223978"}}, "geometry": {"type": "Point", "coordinates": [54.44830926895914, -52.23986867777698]}}]}